[{"OBJECT_NAME":"FLOCK 4G-25","OBJECT_ID":"2025-009AP","EPOCH":"2026-03-09T17:53:50.680608","MEAN_MOTION":15.27424196,"ECCENTRICITY":8.276e-5,"INCLINATION":97.4049,"RA_OF_ASC_NODE":151.4141,"ARG_OF_PERICENTER":316.3151,"MEAN_ANOMALY":43.8023,"EPHEMERIS_TYPE":0,"CLASSIFICATION_TYPE":"U","NORAD_CAT_ID":62646,"ELEMENT_SET_NO":999,"REV_AT_EPOCH":6373,"BSTAR":0.00038902475,"MEAN_MOTION_DOT":0.00010373,"MEAN_MOTION_DDOT":0},{"OBJECT_NAME":"STARLINK-33766","OBJECT_ID":"2025-070N","EPOCH":"2026-03-09T21:27:16.627680","MEAN_MOTION":15.27578942,"ECCENTRICITY":0.00018863,"INCLINATION":43,"RA_OF_ASC_NODE":258.9945,"ARG_OF_PERICENTER":280.8549,"MEAN_ANOMALY":79.209,"EPHEMERIS_TYPE":0,"CLASSIFICATION_TYPE":"U","NORAD_CAT_ID":63472,"ELEMENT_SET_NO":999,"REV_AT_EPOCH":5300,"BSTAR":0.0010627564,"MEAN_MOTION_DOT":0.00029098,"MEAN_MOTION_DDOT":0}]
